,address,latitude,longitude,us_state,name
0,043 Mockingbird Place,39.1682,-86.5186,Indiana,"Cancott,Benetta"
1,4 Prentice Point,41.0938,-85.0707,Indiana,"Cherry,Lilyan"
2,46 Derek Junction,32.7673,-96.7776,Texas,"Benasik,Ezekiel"
3,11966 Old Shore Place,39.035,-94.3567,Missouri,"Atlay,Kennedy"
4,5 Evergreen Circle,40.7808,-73.9772,New York,"Salmen,Sanford"
5,5304 Vidon Drive,32.7887,-96.7676,Texas,"Sheach,Ricki"
6,65 Texas Avenue,39.8285,-84.2024,Ohio,"Cockitt,Haroun"
7,041 Eagle Crest Court,32.0295,-102.0915,Texas,"Bortolozzi,Tuesday"
8,72402 Annamark Terrace,38.8992,-77.0089,District of Columbia,"Eplate,Liz"
9,7 Sauthoff Circle,35.191,-94.2382,Arkansas,"Dwelley,Rina"
10,52 Hovde Alley,33.4951,-86.8059,Alabama,"Ronaldson,Giacinta"
11,31398 Meadow Valley Park,61.1089,-149.4403,Alaska,"Muir,Shelbi"
12,62559 Gateway Parkway,45.9783,-108.1945,Montana,"Ridings,Pancho"
13,5 Cascade Junction,29.4237,-98.4925,Texas,"Manley,Sharl"
14,1175 Logan Circle,43.0214,-76.1977,New York,"Willoughway,Quintus"
15,81 Macpherson Court,40.4001,-86.8602,Indiana,"Greguol,Tamara"
16,1344 Fairfield Circle,38.189,-85.6768,Kentucky,"Dives,Janeva"
17,2 Brickson Park Trail,37.9971,-87.575,Indiana,"Yeoland,Tades"
18,76146 Surrey Circle,39.5224,-119.8353,Nevada,"Wilsey,Maxim"
19,530 Valley Edge Park,39.7388,-104.4083,Colorado,"Clapston,Melicent"
20,088 Grayhawk Hill,40.3086,-76.8464,Pennsylvania,"Amerighi,Tedmund"
21,3 Annamark Hill,27.9139,-82.7157,Florida,"Foynes,Lenna"
22,740 Starling Hill,34.734,-86.5229,Alabama,"Batrim,Toddy"
23,1622 Emmet Park,37.6802,-121.9215,California,"Rees,Raoul"
24,4 Independence Lane,45.0159,-93.4719,Minnesota,"McSorley,Aurilia"
25,15 Crest Line Street,33.9909,-118.1532,California,"Boncore,Valerie"
26,502 Cardinal Drive,31.7705,-106.5048,Texas,"MacAdie,Fiorenze"
27,77 Emmet Terrace,37.5593,-77.4471,Virginia,"Andrin,Nicky"
28,51 Superior Parkway,32.7582,-97.1003,Texas,"Guillet,Adrea"
29,15282 Cottonwood Lane,28.0726,-82.559,Florida,"Gherardini,Ame"
30,6 Schlimgen Hill,28.0173,-82.7461,Florida,"Kunrad,Ruggiero"
31,37616 Fisk Terrace,38.5814,-90.2625,Missouri,"Jeandet,Reuben"
32,9239 Schmedeman Pass,43.1367,-77.6481,New York,"Barlass,Tandi"
33,239 Fallview Terrace,40.7651,-73.9858,New York,"Beardmore,Brynne"
34,36452 Morningstar Parkway,26.1097,-80.3215,Florida,"Bassilashvili,Wolfie"
35,76707 Lakewood Gardens Trail,30.0211,-94.1157,Texas,"Crowcombe,Merrick"
36,598 Lotheville Parkway,42.2399,-83.1508,Michigan,"Lowre,Langston"
37,7532 Morning Parkway,30.287,-81.3893,Florida,"Tebbit,Cordey"
38,755 Forest Way,41.119,-73.733,New York,"Trumble,Leticia"
39,05649 Scott Parkway,35.1316,-80.8577,North Carolina,"Scocroft,Derwin"
40,79 Oak Valley Road,40.3522,-78.9383,Pennsylvania,"Guirard,Emlynne"
41,797 Marcy Pass,41.613,-90.6063,Iowa,"Rennick,Archibald"
42,8844 Duke Street,35.0768,-85.3082,Tennessee,"Andrusyak,Emmery"
43,3 Pine View Plaza,27.1675,-82.381,Florida,"Revie,Pattie"
44,0446 Grayhawk Place,34.8019,-92.1894,Arkansas,"Caudrelier,Dukey"
45,96 Memorial Park,31.6948,-106.3,Texas,"Rubinchik,Brittney"
46,80399 Red Cloud Junction,29.6297,-95.4382,Texas,"Jeannenet,Clarinda"
47,72910 American Ash Alley,37.5422,-97.2871,Kansas,"Jarrelt,Sonja"
48,575 Moose Lane,38.8933,-77.0146,District of Columbia,"Duggon,Alwyn"
49,376 Saint Paul Avenue,32.4908,-92.1594,Louisiana,"Muehler,Dunstan"
50,07 Colorado Place,33.7843,-118.1157,California,"Symcock,Ambrosius"
51,1 Gina Junction,33.9443,-83.3891,Georgia,"Blew,Tymon"
52,3818 Jana Hill,41.2722,-75.8801,Pennsylvania,"Cram,Vail"
53,9150 Florence Court,36.7991,-119.8016,California,"Balfour,Kean"
54,19 Eliot Trail,32.6076,-93.7526,Louisiana,"Giacometti,Hall"
55,6 Shelley Place,45.2009,-93.8881,Minnesota,"Berling,Haley"
56,114 Melby Road,40.8171,-73.7416,New York,"Graysmark,Glori"
57,975 Clove Trail,33.6062,-117.8931,California,"Newbury,Gabi"
58,896 Anzinger Trail,26.2416,-81.8071,Florida,"Collis,Kerstin"
59,24 Mockingbird Drive,33.7843,-118.1157,California,"Burgiss,Aylmer"
60,113 Pearson Way,37.7509,-122.4153,California,"McVeighty,Rebeka"
61,66053 Oak Park,41.6525,-83.5085,Ohio,"St Ledger,Ulrike"
62,27664 Emmet Crossing,25.5584,-80.4582,Florida,"Kalkhoven,Kristal"
63,33597 Schlimgen Avenue,33.8444,-84.474,Georgia,"Lombard,Saxe"
64,7 Forest Lane,33.7866,-118.2987,California,"Escolme,Cherida"
65,2 Jana Center,40.0418,-76.3012,Pennsylvania,"Chin,Dalston"
66,77933 Bonner Avenue,37.5313,-77.4161,Virginia,"Pelfer,Jim"
67,681 Del Sol Avenue,40.2618,-76.88,Pennsylvania,"Greguoli,Nertie"
68,30814 Westport Alley,25.5584,-80.4582,Florida,"Rubartelli,Fonz"
69,823 3rd Alley,34.8661,-82.3198,South Carolina,"D'Hooge,Homerus"
70,1575 Village Place,30.0956,-81.6217,Florida,"Gossop,Faber"
71,5 Elgar Pass,43.5851,-116.2191,Idaho,"Purse,Tonie"
72,37131 Reindahl Park,39.592,-105.1328,Colorado,"Fleet,Cristine"
73,12 Tomscot Drive,36.7377,-119.7843,California,"Sugar,Artair"
74,9387 Texas Road,38.4631,-122.99,California,"Dilnot,Zolly"
75,1 Spenser Plaza,41.2722,-75.8801,Pennsylvania,"Restall,Teodorico"
76,1 Mockingbird Terrace,40.7918,-74.2452,New Jersey,"Ovise,Geri"
77,48 Atwood Circle,47.6849,-122.2968,Washington,"Scrogges,Tate"
78,26434 Atwood Road,41.613,-90.6063,Iowa,"Larcombe,Ginnie"
79,0953 Moulton Avenue,32.404,-86.2539,Alabama,"Loan,Celie"
80,8595 Marcy Trail,33.8444,-84.474,Georgia,"Chaster,Euell"
81,489 Stone Corner Crossing,37.5313,-77.4161,Virginia,"Zupa,Letti"
82,7696 Haas Alley,38.8377,-104.837,Colorado,"Grayling,Lucian"
83,9 Badeau Street,37.3811,-122.3348,California,"Solloway,Nickolas"
84,001 Prairie Rose Point,41.9705,-70.7014,Massachusetts,"D'Oyley,Adore"
85,8 Menomonie Terrace,38.9087,-77.0414,District of Columbia,"Scaplehorn,Kipper"
86,54121 Marquette Point,27.981,-81.6736,Florida,"Boni,Millisent"
87,67 Eggendart Parkway,47.0662,-122.1132,Washington,"Dougill,Filip"
88,1 Roth Street,34.734,-86.5229,Alabama,"Vineall,Melonie"
89,7 Cardinal Road,40.0018,-75.1179,Pennsylvania,"Rosenberg,Cale"
90,12 Pine View Alley,35.9901,-83.9622,Tennessee,"Fenn,Rheta"
91,2 Sunnyside Way,33.5446,-86.9292,Alabama,"Minear,Hilary"
92,0982 Maywood Crossing,26.6644,-80.1741,Florida,"Lockley,Constantina"
93,280 Weeping Birch Crossing,41.8119,-87.6873,Illinois,"Frankcombe,Katrine"
94,5 1st Trail,38.8976,-77.027,District of Columbia,"MacKain,Jarrid"
95,8329 Messerschmidt Point,36.0119,-115.0433,Nevada,"Alldred,Ned"
96,8 Goodland Court,33.386,-82.091,Georgia,"Oakwood,Karla"
97,43754 Lyons Road,26.9668,-81.9545,Florida,"Peatman,Say"
98,3410 Merchant Pass,33.7866,-118.2987,California,"Yann,Morse"
99,76 Dwight Drive,41.119,-73.733,New York,"Bigly,Jennilee"
100,49113 Lindbergh Trail,30.033,-89.8826,Louisiana,"Ramey,Abel"
101,617 Fairview Circle,36.8686,-76.3552,Virginia,"Cooch,Isabel"
102,25 Atwood Pass,45.6231,-122.5767,Washington,"Richold,Sarine"
103,0828 Moose Court,41.3657,-72.9275,Connecticut,"Delepine,Harp"
104,6 Canary Street,40.5973,-74.0768,New York,"Bows,Waldo"
105,40 Sunfield Street,42.5991,-83.1789,Michigan,"Yter,Gene"
106,097 Pawling Parkway,35.9279,-114.9721,Nevada,"Fryman,Lelia"
107,5 Manufacturers Junction,41.3657,-72.9275,Connecticut,"Sincock,Hyacinthia"
108,15 Pawling Street,32.7065,-97.3375,Texas,"Vayne,Aylmer"
109,55 Kropf Place,38.8933,-77.0146,District of Columbia,"Gettone,Justin"
110,98551 Welch Center,38.8933,-77.0146,District of Columbia,"Gorghetto,Stefania"
111,67709 Center Crossing,44.4601,-88.0074,Wisconsin,"Ferriman,Leigh"
112,0 Bunker Hill Center,45.7246,-111.1238,Montana,"Huggin,Waverly"
113,751 High Crossing Center,44.9806,-93.1771,Minnesota,"Vink,Cesare"
114,2 Little Fleur Way,33.2765,-112.1872,Arizona,"Hendin,Tracey"
115,0 Dawn Avenue,30.0042,-95.1728,Texas,"Webborn,Stinky"
116,878 Magdeline Lane,34.0324,-119.1343,California,"Tosspell,Trudey"
117,4489 Nancy Alley,45.2009,-93.8881,Minnesota,"Szymonowicz,Boy"
118,51836 Oak Pass,38.8247,-104.562,Colorado,"Kubala,Torre"
119,25277 Mifflin Circle,41.7458,-87.6054,Illinois,"Ratazzi,Jenica"
120,1 West Lane,37.5593,-77.4471,Virginia,"Torbard,Tannie"
121,5815 Blaine Plaza,33.5446,-86.9292,Alabama,"Ditchett,Teador"
122,96173 8th Park,32.7233,-97.269,Texas,"Gumery,Agathe"
123,899 Fairview Terrace,36.1398,-96.0297,Oklahoma,"Wyke,Cos"
124,67281 Fuller Pass,27.777,-97.4632,Texas,"Klein,Dunc"
125,91680 Carberry Parkway,40.8469,-73.7874,New York,"Kuna,Cristal"
126,49 Eliot Park,34.7519,-92.3925,Arkansas,"Loughhead,Philly"
127,33 Graedel Trail,34.0324,-119.1343,California,"Honywill,Gerrie"
128,074 Sycamore Crossing,45.0058,-93.4193,Minnesota,"Hurleston,Gregory"
129,41130 Duke Point,27.4841,-82.5834,Florida,"Manderson,Emelen"
130,4 Donald Park,43.0314,-85.5503,Michigan,"Dumbell,Iggie"
131,7926 Dennis Alley,37.2742,-79.9579,Virginia,"Parman,Antonia"
132,54251 Everett Drive,32.7673,-96.7776,Texas,"Cristou,Curtis"
133,01833 Welch Crossing,41.8756,-87.6378,Illinois,"Borgesio,Teodora"
134,55978 Morrow Lane,35.0942,-85.1757,Tennessee,"Rodenburg,Trudy"
135,2983 Loeprich Place,44.4601,-88.0074,Wisconsin,"Ismay,Elvina"
136,938 Lien Pass,40.4344,-80.0248,Pennsylvania,"Pocknoll,Hilde"
137,6 Mockingbird Terrace,30.033,-89.8826,Louisiana,"Hawgood,Nathalie"
138,88938 Graedel Place,33.8444,-84.474,Georgia,"Brambill,Berry"
139,48 Tennyson Terrace,29.6223,-95.26,Texas,"Domelow,Elita"
140,80 Monument Parkway,39.734,-105.0259,Colorado,"Bound,Elyse"
141,5 Parkside Avenue,39.3093,-76.6699,Maryland,"Norwood,Ancell"
142,91112 Dexter Terrace,43.0696,-89.4239,Wisconsin,"Langmead,Adlai"
143,56552 Sachtjen Park,47.1591,-122.5485,Washington,"Spridgen,Stearn"
144,297 Gerald Junction,35.9279,-114.9721,Nevada,"Haestier,Ibrahim"
145,1024 Transport Center,33.0169,-116.846,California,"Edmonds,Claudianus"
146,30275 Waxwing Center,35.6124,-88.8412,Tennessee,"Creboe,Dorey"
147,2 Corscot Street,30.2906,-95.3832,Texas,"Borell,Leontyne"
148,5044 Canary Center,39.009,-77.4422,Virginia,"Aked,Ruthi"
149,79456 Delaware Avenue,30.2231,-81.7556,Florida,"Grigolashvill,Andros"
150,7998 Meadow Ridge Place,39.0663,-94.5674,Missouri,"Roscoe,Alysia"
151,21 Lake View Avenue,35.7977,-78.6253,North Carolina,"Hoble,Erika"
152,0 Lake View Lane,39.1075,-84.5257,Ohio,"Tillard,Noland"
153,77 Corben Junction,40.303,-76.8862,Pennsylvania,"Myhill,Cirstoforo"
154,047 Crownhardt Trail,30.0877,-89.8462,Louisiana,"Pegrum,Lorine"
155,29128 Kenwood Junction,40.43,-74.4173,New Jersey,"Davydzenko,Torie"
156,6417 Dayton Park,37.6808,-97.1558,Kansas,"Daykin,Anson"
157,8053 Merrick Pass,45.071,-92.9391,Minnesota,"Hawtrey,Kate"
158,5143 Laurel Trail,43.0214,-76.1977,New York,"Mulmuray,Marigold"
159,8516 Delladonna Court,38.945,-77.0364,District of Columbia,"Jellings,Angel"
160,6599 Miller Terrace,40.6914,-73.8061,New York,"Vosse,Hilly"
161,15 John Wall Court,40.8247,-73.894,New York,"Wooster,Keven"
162,19 Schurz Trail,31.3902,-97.7993,Texas,"Marmion,Nada"
163,41 Summer Ridge Circle,34.84,-115.9671,California,"Dukesbury,Corrie"
164,5 Hovde Plaza,40.0185,-76.2976,Pennsylvania,"Healings,Sadye"
165,12 Drewry Court,29.0227,-81.1722,Florida,"Kerner,Cedric"
166,8179 Russell Parkway,35.1334,-90.0046,Tennessee,"Nijs,Burr"
167,00 Eastwood Street,40.702,-74.089,New Jersey,"Dibbin,Bellanca"
168,233 Village Green Plaza,37.4009,-79.1785,Virginia,"D'Ambrogi,Elysha"
169,5 Dixon Court,41.5968,-86.293,Indiana,"Aim,Orton"
170,36585 Derek Hill,38.354,-81.6394,West Virginia,"Penner,Samaria"
171,047 Golf Course Trail,38.5309,-92.2493,Missouri,"Wittrington,Allie"
172,33 New Castle Hill,39.1668,-84.5382,Ohio,"Lownie,Andrei"
173,4455 Kingsford Street,42.3654,-71.2316,Massachusetts,"Mussen,Micky"
174,0560 Meadow Vale Terrace,43.6746,-96.7913,South Dakota,"Copcutt,Ulberto"
175,71 Barnett Point,38.8959,-77.0211,District of Columbia,"Deverick,Jennee"
176,5 Colorado Terrace,44.2595,-72.585,Vermont,"Carnachen,Puff"
177,7 Oxford Way,42.0144,-88.0935,Illinois,"Weson,Conchita"
178,987 Kingsford Junction,42.2922,-85.633,Michigan,"Denerley,Morena"
179,8 Bluejay Point,32.6076,-93.7526,Louisiana,"Selman,Fredric"
180,64536 Eliot Crossing,39.6505,-79.944,West Virginia,"Ammer,Rochette"
181,151 Cottonwood Hill,26.0989,-80.1541,Florida,"Bastistini,Rice"
182,7738 Memorial Way,30.6341,-88.0846,Alabama,"Cave,Nap"
183,42 Loeprich Crossing,33.786,-84.3514,Georgia,"Scholefield,Lizette"
184,4 Eastwood Pass,39.7467,-104.8384,Colorado,"Maymond,Hillel"
185,9762 Pearson Pass,38.2149,-85.6245,Kentucky,"Willan,Angelique"
186,64009 Green Ridge Alley,43.4599,-116.244,Idaho,"Soots,Darda"
187,16502 Anderson Court,35.2017,-89.9715,Tennessee,"Crumby,Baudoin"
188,41 Menomonie Lane,33.7866,-118.2987,California,"Swanton,Englebert"
189,76949 Norway Maple Trail,25.7341,-80.4068,Florida,"Pearsall,Errick"
190,8 Loeprich Street,39.0429,-95.7697,Kansas,"Andrews,Morris"
191,0889 Roth Avenue,47.0662,-122.1132,Washington,"Burril,Stevena"
192,84 Katie Crossing,34.1869,-118.348,California,"Reedy,Augie"
193,045 Eagan Junction,37.7211,-122.4754,California,"Writer,Hank"
194,884 Namekagon Circle,33.783,-118.0256,California,"Lambol,Ario"
195,297 Merry Park,38.9613,-94.8222,Kansas,"Wreiford,Davis"
196,830 Anniversary Road,43.4732,-83.9514,Michigan,"Housaman,Griselda"
197,253 Morning Hill,35.0425,-90.0732,Tennessee,"Nalder,Mariska"
198,160 Prairieview Center,33.7529,-116.0556,California,"Abbate,Charity"
199,88510 Lien Crossing,35.4015,-101.8951,Texas,"Blomfield,Marijn"
200,33 Vernon Court,40.081,-82.9383,Ohio,"Cadney,Merrilee"
201,5 Monterey Lane,40.2805,-74.712,New Jersey,"Linebarger,Gilbertine"
202,6 Vermont Place,45.4918,-122.7267,Oregon,"Wyndham,Che"
203,527 Jackson Circle,38.8933,-77.0146,District of Columbia,"Mazillius,Conney"
204,4 Dennis Junction,33.2765,-112.1872,Arizona,"Ebenezer,Saxe"
205,722 Roth Hill,38.3365,-77.4366,Virginia,"Mawdsley,Towney"
206,7596 Jenna Park,32.3366,-111.1771,Arizona,"Tufts,Jeffy"
207,80087 Lighthouse Bay Alley,29.4375,-98.4616,Texas,"Pender,Norton"
208,62694 Johnson Circle,35.2017,-89.9715,Tennessee,"Rosenhaupt,Ashlee"
209,19 Mallory Plaza,38.2868,-85.7321,Indiana,"Drewet,Lucas"
210,5540 Anthes Court,33.8932,-84.2539,Georgia,"Liebmann,Haily"
211,59241 Ilene Crossing,40.7808,-73.9772,New York,"Ronci,Gavan"
212,735 Cody Court,39.6888,-105.156,Colorado,"Elnor,Terri"
213,5362 Comanche Pass,27.7391,-82.6435,Florida,"Long,Micheline"
214,17 Butternut Hill,40.0018,-75.1179,Pennsylvania,"Harvison,Georges"
215,241 Texas Junction,35.5514,-97.4075,Oklahoma,"Witcher,Brig"
216,15529 Comanche Plaza,38.189,-85.6768,Kentucky,"Dent,Sam"
217,2244 Victoria Place,32.2519,-110.82,Arizona,"Roxburch,Skye"
218,7 Pankratz Park,34.2651,-77.867,North Carolina,"Parradine,Arman"
219,5859 Bultman Street,39.7655,-89.7293,Illinois,"Witchalls,Bran"
220,6 Cordelia Lane,37.0318,-76.3199,Virginia,"Broadnicke,Tatum"
221,64267 Rusk Drive,26.045,-81.6669,Florida,"Grotty,Maxwell"
222,27 Claremont Park,41.9453,-87.7474,Illinois,"Di Frisco,Willetta"
223,14696 Maple Wood Trail,37.625,-77.4959,Virginia,"Stanners,Alysa"
224,7 Division Trail,33.4951,-86.8059,Alabama,"Ellesworthe,Kristan"
225,7146 Anderson Circle,27.8918,-82.7248,Florida,"Stapforth,Carree"
226,59 Weeping Birch Hill,36.7464,-119.6397,California,"Peerman,Grace"
227,5 Kennedy Crossing,36.2471,-115.221,Nevada,"Aldwich,Robb"
228,81 Prentice Avenue,42.2464,-85.0045,Michigan,"MacAlpyne,Leanora"
229,05317 Village Trail,32.4968,-92.0756,Louisiana,"Harvett,Hakim"
230,5471 Summer Ridge Park,38.8933,-77.0146,District of Columbia,"Myring,Walt"
231,939 Rutledge Lane,40.2204,-74.7622,New Jersey,"Mewrcik,Bear"
232,4 Stuart Pass,37.3983,-122.0006,California,"Scripture,Kristofer"
233,15684 Johnson Street,36.9959,-122.0578,California,"Lalor,Debbi"
234,97579 Welch Street,41.613,-90.6063,Iowa,"Cutill,Arline"
235,28 Delaware Street,30.033,-89.8826,Louisiana,"Forsaith,Orbadiah"
236,14542 Monica Plaza,29.7853,-95.1852,Texas,"Turban,Scot"
237,7 Carey Court,41.3089,-73.3637,Connecticut,"Pauleau,Suzi"
238,5486 Superior Trail,36.7991,-119.8016,California,"Ghidelli,Denny"
239,7317 Dovetail Crossing,27.9246,-80.5235,Florida,"Macvey,Hallsy"
240,8 Bayside Way,36.8282,-76.0237,Virginia,"Morgen,Rey"
241,5228 Bluestem Terrace,38.8933,-77.0146,District of Columbia,"McCarter,Angelo"
242,0 Havey Terrace,29.9015,-95.2848,Texas,"Dudgeon,Dallas"
243,19557 Loeprich Crossing,45.0059,-93.1059,Minnesota,"Yaakov,Osbourne"
244,3 Porter Plaza,38.896,-77.0177,District of Columbia,"Danelet,Noami"
245,96 Merrick Pass,35.411,-97.4388,Oklahoma,"Skoughman,Paddy"
246,8 Orin Street,40.6412,-74.0133,New York,"Mcsarry,Mendel"
247,25 Northview Trail,37.1894,-121.7053,California,"Starmont,Karine"
248,247 Clyde Gallagher Place,32.9189,-96.7751,Texas,"McGuigan,Allin"
249,999 Sherman Drive,44.8055,-93.7665,Minnesota,"McAndie,Bryan"
250,17158 Prairie Rose Road,45.5137,-122.5569,Oregon,"Grigoliis,Fax"
251,41 Helena Junction,39.9597,-75.2024,Pennsylvania,"Lope,Helen-elizabeth"
252,55835 Green Ridge Park,33.8444,-84.474,Georgia,"MacHostie,Joey"
253,26 Linden Point,35.2211,-85.2091,Tennessee,"Harken,Nissa"
254,86706 Independence Hill,39.1075,-84.5257,Ohio,"Elwood,Alyson"
255,54 3rd Place,40.0903,-75.041,Pennsylvania,"Towey,Ignacius"
256,47582 Lyons Avenue,36.7464,-119.6397,California,"Blesli,Nicolea"
257,7 Little Fleur Way,41.4509,-81.619,Ohio,"Avo,Shea"
258,6090 Lillian Road,33.2781,-111.7096,Arizona,"Sparks,Christophe"
259,89500 Delladonna Court,33.9335,-84.3958,Georgia,"Spinella,Patrica"
260,81763 Hansons Court,47.1591,-122.5485,Washington,"Flanders,Ethel"
261,1870 Graceland Place,32.7948,-96.7697,Texas,"Nardi,Boothe"
262,14689 Sutteridge Crossing,32.7673,-96.7776,Texas,"Moat,Laurens"
263,3 Starling Parkway,32.0175,-80.997,Georgia,"Matyushenko,Pepillo"
264,5073 American Ash Crossing,35.0448,-106.6893,New Mexico,"Rumin,Hall"
265,05 Dakota Trail,40.8529,-96.7943,Nebraska,"Hamley,Manya"
266,29652 Moulton Center,35.0512,-106.7269,New Mexico,"Stonier,Allen"
267,54664 Tennessee Plaza,32.7948,-96.7697,Texas,"Arunowicz,Ramsay"
268,7 Mifflin Crossing,38.9381,-77.086,District of Columbia,"Davydoch,Brinn"
269,1634 Oak Valley Crossing,29.834,-95.4342,Texas,"Jeannequin,Laure"
270,3 Ridgeview Trail,39.9671,-83.0044,Ohio,"Baynom,Suellen"
271,852 Roxbury Park,41.776,-87.6674,Illinois,"McCarroll,Lorri"
272,6 Lotheville Way,30.085,-94.2607,Texas,"Naismith,Miller"
273,461 Talmadge Point,39.2627,-94.697,Missouri,"Hember,Rhiamon"
274,5 Fairfield Hill,42.2492,-71.8108,Massachusetts,"Slater,Chickie"
275,677 Monument Center,26.5747,-80.0794,Florida,"Jebb,Birk"
276,3 Blue Bill Park Plaza,32.69,-96.9177,Texas,"Dik,Sapphira"
277,14 Green Circle,35.9279,-114.9721,Nevada,"Yarnall,Dick"
278,7896 Florence Center,40.7918,-74.2452,New Jersey,"Tembridge,Marion"
279,6550 Bonner Pass,42.7325,-84.5587,Michigan,"Antognoni,Karna"
280,720 Farwell Pass,43.6783,-70.1987,Maine,"Lowres,Clo"
281,5924 Kingsford Trail,40.6451,-73.945,New York,"Coorington,Aymer"
282,997 Montana Park,40.0018,-75.1179,Pennsylvania,"Davidovich,Mayer"
283,31588 Oak Hill,33.8444,-84.474,Georgia,"Bartoszewicz,Cecilius"
284,0071 School Drive,33.0169,-116.846,California,"Lavies,Brittani"
285,15 Macpherson Parkway,29.7853,-95.1852,Texas,"McCumesky,Dacia"
286,148 Sullivan Avenue,37.0206,-76.3377,Virginia,"Rustman,Hubert"
287,779 Summit Trail,28.0081,-82.5805,Florida,"Smorthit,Humfrid"
288,8482 Dahle Trail,34.7519,-92.3925,Arkansas,"Astin,Haslett"
289,9901 Bayside Trail,40.7324,-74.0431,New Jersey,"Pach,Martie"
290,172 Northview Point,32.3401,-80.689,South Carolina,"Cawdron,Van"
291,903 Bultman Center,38.3774,-121.4444,California,"Frondt,Rafaelita"
292,93659 Warbler Avenue,40.3886,-75.9328,Pennsylvania,"Strick,Ancell"
293,34544 Ridgeview Street,39.7617,-84.1498,Ohio,"Rowlatt,Mariellen"
294,6908 Forest Run Terrace,36.5799,-82.5733,Tennessee,"Lakes,Cecilius"
295,26351 Jenna Park,26.1654,-80.2959,Florida,"McGookin,Craig"
296,7 Hermina Drive,33.9335,-84.3958,Georgia,"Bavidge,Donelle"
297,61621 Goodland Court,41.7918,-72.7188,Connecticut,"Muselli,Phillida"
298,5 Carioca Pass,40.7779,-82.4613,Ohio,"Gwalter,Bobbette"
299,23998 Riverside Drive,37.1376,-84.1156,Kentucky,"Leathlay,Murvyn"
300,52341 Elgar Terrace,32.4589,-93.7143,Louisiana,"Peet,Peggi"
301,311 Harper Trail,35.5514,-97.4075,Oklahoma,"Siggee,Didi"
302,4339 Blue Bill Park Lane,35.2017,-89.9715,Tennessee,"Wrout,Dion"
303,9229 School Park,33.6062,-117.8931,California,"Motion,Abey"
304,3 Holy Cross Drive,33.4061,-112.0265,Arizona,"Copping,Hillary"
305,46186 Arrowood Plaza,25.5593,-80.3483,Florida,"Barrowclough,Niccolo"
306,835 Meadow Valley Road,39.731,-104.9384,Colorado,"Zylbermann,Dionisio"
307,17687 Lillian Court,33.1903,-97.1282,Texas,"Bamlet,Sloane"
308,50558 Texas Way,39.7617,-84.1498,Ohio,"Sanney,Hughie"
309,3 1st Avenue,39.9845,-75.2282,Pennsylvania,"Bryenton,Harlen"
310,62 Pierstorff Pass,42.3823,-71.0323,Massachusetts,"Fendley,Ashely"
311,280 Loftsgordon Terrace,30.2407,-81.893,Florida,"Kalkofen,Umeko"
312,66 Killdeer Center,39.2847,-76.6205,Maryland,"Foster,Grayce"
313,7793 Mallard Street,36.1398,-96.0297,Oklahoma,"Kahane,Griffie"
314,17416 Glacier Hill Crossing,40.7918,-74.2452,New Jersey,"Pennini,Marvin"
315,52 Spaight Plaza,38.189,-85.6768,Kentucky,"Yanshinov,Emelina"
316,3 Mitchell Point,34.006,-80.9708,South Carolina,"Meriel,Odetta"
317,19732 Truax Street,33.2765,-112.1872,Arizona,"Bottom,Thedric"
318,480 Dawn Street,21.3278,-157.8294,Hawaii,"Debenham,Lyon"
319,102 Clemons Place,43.0214,-76.1977,New York,"Lanceter,Gusty"
320,65 Arizona Crossing,37.7641,-122.1633,California,"Entwhistle,Knox"
321,38349 Jackson Terrace,40.6681,-111.9083,Utah,"Hamal,Alana"
322,239 Nobel Way,43.073,-89.4528,Wisconsin,"Kennsley,Elie"
323,86 Shasta Alley,35.22,-80.7881,North Carolina,"Eisak,Wainwright"
324,0308 Maywood Center,44.4601,-88.0074,Wisconsin,"Camilio,Bernadette"
325,3 Sunbrook Crossing,37.7639,-97.4269,Kansas,"Hargerie,Vere"
326,79 Arkansas Plaza,43.1577,-77.608,New York,"Dallender,Betteann"
327,2 Eastwood Road,32.8067,-83.6913,Georgia,"McKeowon,Tori"
328,7 Pennsylvania Alley,27.8918,-82.7248,Florida,"Griffen,Annabell"
329,75 Forest Dale Pass,38.9776,-77.386,Virginia,"Bonhomme,Tann"
330,991 Pierstorff Trail,36.1398,-96.0297,Oklahoma,"Red,Moishe"
331,707 Myrtle Plaza,32.6796,-97.3336,Texas,"Kitchinghan,Kerr"
332,0727 Northridge Park,40.7442,-89.7184,Illinois,"Rycroft,Normand"
333,87218 Sachtjen Street,30.4455,-97.6595,Texas,"de Mullett,Corrianne"
334,4 2nd Way,47.6536,-117.4317,Washington,"Kensit,Norby"
335,82 Meadow Vale Court,37.5242,-77.4932,Virginia,"Fergyson,Burton"
336,8074 Maple Wood Parkway,39.035,-94.3567,Missouri,"Scutts,Chalmers"
337,6 Sundown Plaza,31.6948,-106.3,Texas,"Brunelli,Putnam"
338,09 Sloan Alley,30.4124,-87.2035,Florida,"Geldart,Pierre"
339,47 Eastlawn Place,37.6374,-122.067,California,"Ballsdon,Pasquale"
340,90195 Brickson Park Terrace,28.5559,-81.3535,Florida,"Scipsey,Roman"
341,742 Vahlen Road,27.9694,-80.6473,Florida,"Fredi,Millisent"
342,5 Old Gate Alley,39.7495,-89.606,Illinois,"Borles,Angeli"
343,2 Washington Place,39.1802,-84.4204,Ohio,"Cayette,Mitchell"
344,3 Ruskin Hill,45.0159,-93.4719,Minnesota,"Worvell,Waldo"
345,390 Autumn Leaf Parkway,39.7388,-104.4083,Colorado,"Daskiewicz,Christy"
346,61980 Acker Avenue,45.7246,-111.1238,Montana,"Cowper,Babette"
347,88 Nobel Crossing,37.8471,-122.2223,California,"Begg,Janelle"
348,35393 Cardinal Center,35.26,-80.8042,North Carolina,"Hanne,Mersey"
349,66215 Columbus Plaza,34.8337,-92.3289,Arkansas,"Braney,Torrey"
350,36 Haas Pass,38.9007,-77.0431,District of Columbia,"Eakle,Farr"
351,649 Marquette Park,39.1668,-84.5382,Ohio,"Pothergill,Stern"
352,576 Fairfield Lane,27.777,-97.4632,Texas,"Barabisch,Lorrie"
353,6 Mayfield Terrace,38.4386,-122.6727,California,"Sautter,Dan"
354,13049 Jana Point,29.834,-95.4342,Texas,"Jowle,Callie"
355,6 Utah Parkway,39.2847,-76.6205,Maryland,"Wingeat,Manda"
356,4 Northland Junction,37.3866,-121.897,California,"Espinel,Brendin"
357,2 Rutledge Drive,37.9651,-84.4708,Kentucky,"Silliman,Heath"
358,78066 Crownhardt Parkway,40.7808,-73.9772,New York,"Huster,Gray"
359,15068 School Plaza,41.7638,-72.673,Connecticut,"Hibling,Conroy"
360,8685 Armistice Way,41.8119,-87.6873,Illinois,"Whiteford,Dun"
361,72914 Center Circle,29.4375,-98.4616,Texas,"McOwen,Nichole"
362,14 Rockefeller Terrace,44.8055,-93.7665,Minnesota,"Husband,Culver"
363,87701 Sullivan Alley,47.2325,-122.3594,Washington,"Comer,Maryann"
364,9 Magdeline Junction,38.8318,-77.2888,Virginia,"Spores,Ricard"
365,7 Milwaukee Road,41.2064,-95.9953,Nebraska,"Steven,Howey"
366,5 Charing Cross Way,47.6536,-117.4317,Washington,"Lemmens,Keely"
367,7 Melrose Crossing,33.6013,-111.8867,Arizona,"Keppie,Drusilla"
368,2631 Ludington Pass,43.5851,-116.2191,Idaho,"Turgoose,Dot"
369,5 Cottonwood Park,39.969,-83.0114,Ohio,"Stoeck,Urbanus"
370,5 Mandrake Alley,42.9255,-78.7481,New York,"Bozier,Randal"
371,8060 Magdeline Alley,40.5051,-80.1155,Pennsylvania,"Whinray,Alard"
372,79554 Novick Court,37.9971,-87.575,Indiana,"Banner,Patrick"
373,9 Meadow Valley Pass,30.6589,-88.178,Alabama,"Meth,Gene"
374,583 Stephen Trail,38.6171,-90.4504,Missouri,"Thebeau,Darcee"
375,07881 American Ash Trail,35.26,-80.8042,North Carolina,"Ingledow,Arri"
376,712 Pennsylvania Parkway,40.4614,-88.953,Illinois,"Lindup,Grove"
377,2 Paget Hill,37.6333,-97.425,Kansas,"Thoumas,Ronni"
378,1951 East Center,30.4481,-87.2589,Florida,"Haddington,Miner"
379,76 Fuller Center,37.9577,-121.2897,California,"Skoyles,Freddy"
380,676 Messerschmidt Center,26.1457,-80.4483,Florida,"Spileman,Pru"
381,60 Crescent Oaks Way,42.1827,-80.0649,Pennsylvania,"Diwell,Randolf"
382,726 Sommers Lane,40.8247,-73.894,New York,"Ellcome,Joane"
383,714 Kennedy Avenue,29.7575,-95.3668,Texas,"Peile,Carie"
384,146 Straubel Avenue,41.0114,-74.3048,New Jersey,"McMorland,Terrence"
385,10 Pawling Center,43.6783,-70.1987,Maine,"Kalderon,Lauree"
386,1084 Florence Lane,33.1903,-97.1282,Texas,"Finlry,Darin"
387,05 Moose Avenue,25.7341,-80.4068,Florida,"Mead,Durward"
388,1121 Doe Crossing Terrace,39.1848,-84.3448,Ohio,"Dudbridge,Rowland"
389,0 Mitchell Crossing,33.0169,-116.846,California,"Lomasny,Kilian"
390,1 Stoughton Crossing,35.1885,-101.8165,Texas,"Hartus,Eddie"
391,47936 Continental Place,43.0696,-89.4239,Wisconsin,"Bagnal,Glynn"
392,5166 Pierstorff Crossing,35.7908,-78.653,North Carolina,"Gilbey,Lorrie"
393,55062 Graceland Avenue,44.4601,-88.0074,Wisconsin,"Kem,Celestyn"
394,1514 Susan Junction,40.3086,-76.8464,Pennsylvania,"Satterley,Sandor"
395,9 Northridge Lane,29.7687,-95.3867,Texas,"Hannam,Irina"
396,5944 Utah Point,38.189,-85.6768,Kentucky,"Padula,Boone"
397,396 Cascade Park,38.8808,-77.113,Virginia,"Scottrell,Ludovika"
398,23158 Northridge Alley,35.9901,-83.9622,Tennessee,"Ivashchenko,Georgi"
399,156 Hauk Way,33.3538,-86.8254,Alabama,"Samart,Abbe"
400,3 Pepper Wood Avenue,32.3766,-95.1252,Texas,"Petrina,Wade"
401,626 Lakeland Circle,29.4237,-98.4925,Texas,"Pallister,Lon"
402,797 Steensland Hill,38.8932,-77.049,District of Columbia,"Willimot,Terencio"
403,96 Browning Park,33.9443,-83.3891,Georgia,"Shoppee,Arlan"
404,67926 Rockefeller Park,43.1577,-77.608,New York,"Soppeth,Elga"
405,3832 Cherokee Crossing,36.8686,-76.3552,Virginia,"Tuckwood,Zelma"
406,86 Chinook Hill,40.8265,-73.9383,New York,"Stoakley,Melody"
407,243 Schurz Trail,33.571,-101.8507,Texas,"Elsdon,David"
408,52 Maple Wood Center,38.6531,-90.2435,Missouri,"Stacey,Vanda"
409,10191 Basil Terrace,40.7442,-89.7184,Illinois,"Cockram,Rickert"
410,8 Iowa Place,32.6076,-93.7526,Louisiana,"Hamner,Gibb"
411,89 Sunbrook Street,41.028,-81.4632,Ohio,"Holdin,Helen"
412,51 Moland Alley,40.7628,-73.9785,New York,"McVeigh,Steffane"
413,7860 Vernon Court,38.3774,-121.4444,California,"Scahill,Frederic"
414,41 Cambridge Trail,36.1378,-115.3261,Nevada,"Dellenbach,Haven"
415,673 Grasskamp Hill,41.9453,-87.7474,Illinois,"Gonnard,Carling"
416,5 Parkside Junction,26.6599,-81.8934,Florida,"Wylam,Boycie"
417,8 Hudson Street,32.7714,-97.2915,Texas,"Impleton,Lilas"
418,9516 Melody Street,39.7434,-75.5827,Delaware,"Breckon,Morlee"
419,3865 Gerald Center,30.1244,-93.1835,Louisiana,"Vaskov,Avram"
420,48 Vernon Alley,32.491,-84.8741,Georgia,"Lubbock,Muffin"
421,31408 Eagan Avenue,37.5593,-77.4471,Virginia,"MacColl,Bonnie"
422,2497 Hanover Terrace,26.0663,-80.3339,Florida,"Vargas,Engelbert"
423,8 Dovetail Road,34.84,-115.9671,California,"Bottby,Lamont"
424,03 Badeau Pass,40.7548,-73.6018,New York,"Alp,Robinette"
425,53 Derek Street,40.4344,-80.0248,Pennsylvania,"Onions,Gearard"
426,816 Hoffman Place,31.6948,-106.3,Texas,"Goggan,Mile"
427,52640 Portage Drive,41.6868,-83.4394,Ohio,"Ewdale,Cary"
428,51138 Calypso Center,33.413,-82.1337,Georgia,"Barke,Lula"
429,06 Garrison Avenue,43.4599,-116.244,Idaho,"Izod,Nanine"
430,741 Sage Point,42.3615,-71.0604,Massachusetts,"Walhedd,Cherida"
431,0 Saint Paul Center,37.8044,-122.2698,California,"Kittless,Norry"
432,3962 Oriole Street,30.2407,-81.893,Florida,"Dumingos,Sigismondo"
433,00456 Toban Center,40.7664,-74.1695,New Jersey,"Beddis,Ashly"
434,46497 Blackbird Trail,33.9982,-84.3411,Georgia,"Calvert,Daven"
435,3 Kingsford Place,29.9335,-95.3981,Texas,"Chadwen,Mickie"
436,31 Dovetail Pass,34.8497,-82.4538,South Carolina,"Veneur,Roman"
437,84 Sunbrook Point,31.9701,-111.8907,Arizona,"Purcer,Stephan"
438,753 4th Avenue,38.0283,-84.4715,Kentucky,"Letixier,Ardis"
439,9126 Melrose Park,26.5529,-81.9486,Florida,"Taggett,Lexie"
440,925 Sachs Circle,42.6149,-73.9708,New York,"Ganning,Golda"
441,89 Golf Terrace,40.2805,-74.712,New Jersey,"Wells,Saunders"
442,8227 Maywood Street,40.4344,-80.0248,Pennsylvania,"Walkley,Jelene"
443,2 Maywood Hill,33.7866,-118.2987,California,"Iwanowski,Linell"
444,17312 Summerview Street,38.3774,-121.4444,California,"Heine,Gayelord"
445,51 Norway Maple Pass,39.3093,-76.6699,Maryland,"Batterton,Costa"
446,41661 Sutherland Place,47.6964,-117.4399,Washington,"Hirschmann,Thoma"
447,23 Lake View Plaza,41.5968,-86.293,Indiana,"Paddle,Natka"
448,150 Golf View Trail,38.3774,-121.4444,California,"Longcaster,Darius"
449,0932 Kim Road,47.6564,-122.3048,Washington,"Harbisher,Brigitta"
450,7 Summer Ridge Junction,39.0429,-95.7697,Kansas,"Richards,Rae"
451,84 Dapin Hill,32.7948,-96.7697,Texas,"McGoon,Bartholemy"
452,4 Clyde Gallagher Point,35.284,-81.1897,North Carolina,"Hammant,Murry"
453,93114 Twin Pines Place,38.9067,-77.0312,District of Columbia,"Brassill,Evangelin"
454,581 Alpine Road,44.9034,-93.374,Minnesota,"Linskill,Galven"
455,06 2nd Road,41.028,-81.4632,Ohio,"Kipping,Joice"
456,62 Dixon Pass,41.0938,-85.0707,Indiana,"Spere,Sheffield"
457,94 Emmet Street,39.7388,-104.4083,Colorado,"Cammish,Mychal"
458,4 Ridgeview Hill,26.1443,-80.2069,Florida,"Bullcock,Trudey"
459,13834 Oriole Terrace,27.872,-82.4388,Florida,"Gane,Gannon"
460,767 Holmberg Center,33.8444,-84.474,Georgia,"Scholtis,Donn"
461,1 Onsgard Alley,38.2968,-81.5547,West Virginia,"Hauxby,Celestyna"
462,52964 Shelley Plaza,39.7495,-89.606,Illinois,"Bayfield,Evyn"
463,70778 Sachs Way,33.9328,-84.556,Georgia,"Courage,Harley"
464,8 Briar Crest Parkway,30.0877,-89.8462,Louisiana,"Betancourt,Marlow"
465,18 Sommers Point,42.8161,-73.9398,New York,"Hixley,Renelle"
466,70 Stone Corner Avenue,40.6669,-73.9828,New York,"Sainter,Keir"
467,6378 Kipling Park,34.1231,-79.6893,South Carolina,"Marjanski,Katrine"
468,831 Towne Point,36.7464,-119.6397,California,"Mallett,Mickie"
469,8 Hintze Road,34.1446,-117.3013,California,"Gillingham,Ring"
470,3 Hooker Park,39.4336,-87.4101,Indiana,"Manlow,Gavrielle"
471,65 Carey Terrace,39.361,-76.5891,Maryland,"Janzen,Rudiger"
472,7816 Amoth Lane,27.777,-97.4632,Texas,"Stovin,Erny"
473,07686 Cherokee Court,26.2785,-80.1157,Florida,"Berkely,Kinsley"
474,4808 Muir Park,40.6412,-74.0133,New York,"Schoffel,Morton"
475,683 Schurz Avenue,40.6278,-75.3928,Pennsylvania,"Vossgen,Fanny"
476,1081 Glacier Hill Lane,37.5422,-97.2871,Kansas,"Stemp,Gayle"
477,1 Schlimgen Terrace,29.3977,-98.4658,Texas,"Harsnep,Elise"
478,6489 Meadow Valley Drive,40.7105,-74.0163,New York,"Andreev,Bird"
479,30872 Duke Pass,28.5663,-81.2608,Florida,"Carlson,Sandor"
480,139 Oakridge Crossing,26.5529,-81.9486,Florida,"Allingham,Siegfried"
481,77 Green Ridge Hill,30.5159,-91.0804,Louisiana,"Stanfield,Davidson"
482,4 Mifflin Avenue,47.6564,-122.3048,Washington,"Blowfelde,Keen"
483,3313 Melrose Terrace,40.0422,-75.0244,Pennsylvania,"Boakes,Rosaline"
484,8578 Logan Place,45.0059,-93.1059,Minnesota,"Foxten,Angie"
485,52706 Dottie Crossing,39.1075,-84.5257,Ohio,"Olford,Carine"
486,6940 Melrose Way,38.8377,-104.837,Colorado,"Kretschmer,Shaylynn"
487,94 Shelley Lane,36.8686,-76.3552,Virginia,"Clemmensen,Hoebart"
488,92 Sachtjen Court,41.8119,-87.6873,Illinois,"Vousden,Karine"
489,712 Rutledge Plaza,38.4631,-122.99,California,"Wards,Lyn"
490,6 Forest Dale Pass,38.8933,-77.0146,District of Columbia,"Davidavidovics,Erasmus"
491,18 Kropf Drive,30.0505,-95.4695,Texas,"Baldick,Nilson"
492,25977 Algoma Point,36.7957,-76.0126,Virginia,"Blabey,Mercy"
493,142 Macpherson Hill,37.8471,-122.2223,California,"Brumbye,Shane"
494,8 Southridge Trail,40.6681,-111.9083,Utah,"Reddick,Novelia"
495,641 Coolidge Junction,42.6149,-73.9708,New York,"Wallentin,Winslow"
496,24 Pond Pass,39.1668,-84.5382,Ohio,"Tomaszewicz,Maude"
497,96 Kropf Street,38.5814,-90.2625,Missouri,"Gooddie,Stanton"
498,934 Bayside Parkway,31.6948,-106.3,Texas,"Bertomeu,Emiline"
499,93 Marcy Crossing,45.0059,-93.1059,Minnesota,"Pizzey,Thaddeus"
500,589 Myrtle Road,36.0275,-80.2073,North Carolina,"Gartenfeld,Reginauld"
501,05 Bay Terrace,39.2847,-76.6205,Maryland,"Pieracci,Harald"
502,13 Holmberg Trail,32.7673,-96.7776,Texas,"Pascho,Engelbert"
503,749 Graedel Center,39.9772,-75.2545,Pennsylvania,"Kenningley,Starlene"
504,5 Westport Point,33.8444,-84.474,Georgia,"Cauley,Pierette"
505,00258 Superior Terrace,44.4601,-88.0074,Wisconsin,"Harlin,Ida"
506,51 Dovetail Avenue,40.8063,-96.6545,Nebraska,"Roskruge,Steffen"
507,38 Springs Trail,61.1089,-149.4403,Alaska,"Sharrocks,Weber"
508,59553 Meadow Vale Court,45.6644,-122.5212,Washington,"Leary,Clyde"
509,2565 Trailsway Alley,42.2868,-71.071,Massachusetts,"Flecknell,Marijo"
510,053 Toban Crossing,40.0903,-75.041,Pennsylvania,"Merryman,Wood"
511,06 Debs Point,36.1378,-115.3261,Nevada,"Izakof,Marieann"
512,57358 Morningstar Pass,40.7808,-73.9772,New York,"Bernard,Ericka"
513,3920 Reinke Hill,30.3704,-81.5864,Florida,"Follis,Janka"
514,8738 American Ash Street,30.3264,-97.7713,Texas,"Cronkshaw,Liana"
515,64306 Buell Drive,45.0803,-93.0875,Minnesota,"Pawlaczyk,Even"
516,5 Alpine Pass,34.7784,-86.6091,Alabama,"Prestwich,Finlay"
517,032 Oakridge Alley,33.9328,-84.556,Georgia,"Pitway,Howard"
518,76 Larry Pass,30.1949,-85.6727,Florida,"Shapter,Debera"
519,6002 Waywood Drive,33.1428,-97.0727,Texas,"Parradye,Obed"
520,22 Lake View Park,47.116,-114.0498,Montana,"Weafer,Hilton"
521,6247 Randy Terrace,40.6681,-111.9083,Utah,"Osborne,Hermina"
522,4 Fulton Parkway,35.2017,-89.9715,Tennessee,"Bernardoux,Alexandro"
523,80 Melby Road,40.6924,-73.9666,New York,"Brookesbie,Herculie"
524,8976 Cambridge Parkway,31.6948,-106.3,Texas,"Exon,Camila"
525,50306 Haas Way,29.834,-95.4342,Texas,"O'Moylane,Brit"
526,9 Duke Terrace,32.0053,-81.0477,Georgia,"Van Baaren,Jermaine"
527,84 Harper Place,31.6948,-106.3,Texas,"Madders,Mervin"
528,68197 Katie Junction,39.734,-105.0259,Colorado,"Beavington,Lorelle"
529,37633 Schurz Place,32.2138,-110.824,Arizona,"Medforth,Laverne"
530,57212 Kim Center,39.9274,-104.9548,Colorado,"Keast,Dudley"
531,887 Garrison Junction,31.7705,-106.5048,Texas,"McShirrie,Verna"
532,11 Rockefeller Court,40.04,-86.8936,Indiana,"Seiler,Emmaline"
533,5865 Dayton Junction,35.4369,-119.0679,California,"Alexis,Garvy"
534,3931 Forster Parkway,30.033,-89.8826,Louisiana,"Daily,Cody"
535,93 Dovetail Avenue,40.8956,-81.433,Ohio,"Ellings,Lil"
536,5 Trailsway Parkway,35.5514,-97.4075,Oklahoma,"Lehrmann,Alex"
537,78678 Hudson Trail,30.3752,-97.9007,Texas,"Tallman,Cary"
538,0 Dayton Lane,29.7179,-95.4263,Texas,"Southcoat,Elvera"
539,00 Sugar Way,41.2553,-111.9567,Utah,"Heersema,Domini"
540,99786 Sugar Terrace,30.5159,-91.0804,Louisiana,"Tebboth,Jose"
541,69064 Bluejay Pass,42.1109,-80.1534,Pennsylvania,"Mattheissen,Lona"
542,26536 Fairview Hill,45.6644,-122.5212,Washington,"Gribble,Sibilla"
543,238 Lillian Plaza,37.7848,-122.7278,California,"Hothersall,Fanni"
544,4 Mariners Cove Place,47.7161,-122.3004,Washington,"Delmonti,Fanchon"
545,0082 Corben Circle,42.4981,-83.2058,Michigan,"Dubery,Sophey"
546,75055 Swallow Pass,39.47,-77.3921,Maryland,"Lipsett,Herc"
547,85071 Comanche Circle,33.7406,-84.5545,Georgia,"Parren,Virginie"
548,488 Sycamore Lane,32.4589,-93.7143,Louisiana,"Chisholme,Sollie"
549,31 Maryland Drive,38.6531,-90.2435,Missouri,"Serrels,Abie"
550,7 Muir Avenue,39.739,-84.0856,Ohio,"Cainey,Uriel"
551,9259 Dexter Avenue,38.8933,-77.0146,District of Columbia,"Runchman,Ebonee"
552,33433 Lunder Point,38.9033,-92.1022,Missouri,"Skelly,Elli"
553,4610 Farmco Junction,39.5645,-75.597,Delaware,"Hoult,Roseann"
554,93 Morning Pass,44.9608,-93.1216,Minnesota,"Veldman,Dyanna"
555,563 Northview Alley,33.3072,-87.5859,Alabama,"Shatliff,Callida"
556,729 Schurz Center,39.9379,-75.1794,Pennsylvania,"Werlock,Thacher"
557,40 Debra Pass,27.8918,-82.7248,Florida,"Plak,Pedro"
558,02 Mallory Terrace,31.6631,-106.1401,Texas,"Lewcock,Evan"
559,1 Cottonwood Plaza,29.9686,-90.0646,Louisiana,"Blakemore,Dniren"
560,279 Straubel Circle,37.4009,-79.1785,Virginia,"Dinse,Cornela"
561,11269 Cordelia Plaza,32.7673,-96.7776,Texas,"Joss,Ernest"
562,11 Prairieview Crossing,35.7977,-78.6253,North Carolina,"Smalcombe,Chad"
563,36 Claremont Crossing,38.3774,-121.4444,California,"McVicar,Angele"
564,41581 Fair Oaks Park,39.0966,-94.7495,Kansas,"Reford,Claire"
565,2544 Delladonna Park,38.189,-85.6768,Kentucky,"Thurborn,Sylvester"
566,7 Westridge Road,32.3218,-90.1771,Mississippi,"Freyne,Myrna"
567,31012 Meadow Valley Court,61.1089,-149.4403,Alaska,"Otterwell,Ingmar"
568,42 Garrison Lane,41.3087,-72.9271,Connecticut,"Maghull,Luca"
569,2973 Portage Road,30.2023,-92.0188,Louisiana,"Simion,Nathaniel"
570,84798 Aberg Crossing,40.0903,-75.041,Pennsylvania,"Coakley,Major"
571,988 Butterfield Parkway,31.6948,-106.3,Texas,"MacMychem,Selina"
572,1 Twin Pines Plaza,33.783,-118.0256,California,"Becker,Calli"
573,31888 Derek Street,42.2464,-85.0045,Michigan,"Wordington,Marianna"
574,4 Riverside Way,33.2765,-112.1872,Arizona,"Ordelt,Salvidor"
575,57 Fuller Court,34.7784,-86.6091,Alabama,"McGlade,Ashlie"
576,164 Surrey Place,45.5806,-122.3748,Oregon,"Mowbury,Alejoa"
577,1526 Larry Park,42.1707,-72.6048,Massachusetts,"Sergeant,Courtney"
578,1295 Northview Place,37.7641,-122.1633,California,"Legister,Ber"
579,26156 Hooker Pass,39.1678,-119.7764,Nevada,"Coldbathe,Barby"
580,54407 Loomis Park,33.5452,-86.6655,Alabama,"Burleton,Everard"
581,3952 Corben Court,27.8918,-82.7248,Florida,"Caldairou,Jaclyn"
582,36669 Calypso Terrace,47.1441,-122.4434,Washington,"O'Tuohy,Erastus"
583,12781 Cambridge Place,33.8444,-84.474,Georgia,"Snoddy,Hazlett"
584,915 Amoth Avenue,30.6568,-97.6026,Texas,"Reolfo,Stanton"
585,43134 Dixon Junction,30.4067,-88.9211,Mississippi,"Hardwich,Giffer"
586,41 Swallow Trail,40.081,-82.9383,Ohio,"Santer,Noah"
587,1 Paget Circle,40.7506,-73.9894,New York,"Timbs,Othilia"
588,1172 Independence Place,30.3264,-97.7713,Texas,"Maly,Keri"
589,6307 Jackson Pass,32.7948,-96.7697,Texas,"Eakin,Felizio"
590,428 Dorton Avenue,34.7059,-86.6165,Alabama,"Lots,Heloise"
591,63803 Meadow Valley Way,36.0777,-79.9086,North Carolina,"Admans,Hugh"
592,6 Grim Avenue,40.1399,-88.1961,Illinois,"Cannell,Jack"
593,558 Merchant Road,31.7674,-106.4304,Texas,"Streat,Gilda"
594,87 Weeping Birch Point,35.9279,-114.9721,Nevada,"Hursthouse,Nichol"
595,33506 Maple Wood Junction,32.3401,-80.689,South Carolina,"Danniel,Iris"
596,08 Goodland Road,31.6948,-106.3,Texas,"Blinder,Goraud"
597,12 Anzinger Plaza,32.3386,-90.1708,Mississippi,"Bowles,David"
598,0 Pleasure Parkway,43.1367,-77.6481,New York,"Mockett,Shandeigh"
599,3 Comanche Circle,29.6518,-95.4854,Texas,"Sharrard,Fedora"
600,655 Shelley Lane,39.035,-94.3567,Missouri,"MacAdam,Andrej"
601,196 Farmco Plaza,29.834,-95.4342,Texas,"Chisholm,Ferne"
602,0544 Fulton Point,29.4189,-98.6895,Texas,"Blooman,Niles"
603,1 Roth Alley,36.8787,-76.2604,Virginia,"Peacham,Andi"
604,201 Anhalt Parkway,33.7866,-118.2987,California,"Dizlie,Glynis"
605,25 Commercial Lane,64.8544,-147.8469,Alaska,"Wickstead,Marguerite"
606,76864 Ludington Alley,40.8063,-96.6545,Nebraska,"Belamy,Allie"
607,8 Autumn Leaf Terrace,30.671,-88.1267,Alabama,"Dagworthy,Dotty"
608,78 Florence Court,33.9754,-118.417,California,"Andrasch,Willabella"
609,381 Buena Vista Lane,29.7575,-95.3668,Texas,"Glassard,Kellen"
610,36387 Meadow Valley Point,34.1872,-118.3865,California,"Redfield,Brent"
611,7715 Sunfield Parkway,42.7371,-84.5244,Michigan,"Leet,Tedmund"
612,36097 Waywood Plaza,39.592,-105.1328,Colorado,"Gladding,Cammie"
613,90568 Arizona Court,30.2642,-93.3265,Louisiana,"Paskell,Hamlin"
614,4 Nancy Hill,40.7628,-73.9785,New York,"Farquharson,Gonzales"
615,918 Fisk Road,35.0981,-89.9825,Tennessee,"Cordon,Belia"
616,600 Northfield Lane,40.9177,-73.895,New York,"Tortis,Mickie"
617,703 Chive Court,30.6589,-88.178,Alabama,"Dudson,Fernanda"
618,6 Katie Point,42.7325,-84.5587,Michigan,"Bound,Tilly"
619,954 Alpine Plaza,30.43,-97.8326,Texas,"Reckus,Corrianne"
620,360 Holy Cross Terrace,38.8981,-77.0401,District of Columbia,"Edeson,Winonah"
621,33320 Buhler Plaza,30.43,-97.8326,Texas,"Gaythwaite,Virgil"
622,6910 Valley Edge Hill,35.0512,-106.7269,New Mexico,"Trevan,Vinny"
623,4 Hintze Crossing,32.3386,-90.1708,Mississippi,"Lamshead,Parsifal"
624,0336 Iowa Trail,33.7866,-118.2987,California,"Shinn,Stephenie"
625,9994 Hoard Alley,30.033,-89.8826,Louisiana,"Board,Kelwin"
626,54 Del Sol Circle,26.1457,-80.4483,Florida,"Peters,Forbes"
627,02812 Ridgeview Center,39.9106,-83.7856,Ohio,"Novello,Ephrayim"
628,99192 Chinook Way,40.2805,-74.712,New Jersey,"Cadamy,Nobe"
629,11320 Roth Place,44.0225,-92.4668,Minnesota,"Cogan,Ferdinande"
630,612 Charing Cross Drive,39.7495,-89.606,Illinois,"Twinterman,Cletus"
631,5 Mandrake Street,38.8933,-77.0146,District of Columbia,"Middler,Devlin"
632,8226 Sunnyside Street,27.9139,-82.7157,Florida,"Bankhurst,Karisa"
633,562 Texas Plaza,37.7786,-122.4892,California,"Capitano,Forrester"
634,8055 3rd Park,37.1376,-84.1156,Kentucky,"Butterwick,Sybyl"
635,3951 Caliangt Plaza,40.7808,-73.9772,New York,"Byrth,Karon"
636,40557 Sloan Street,41.8804,-87.7223,Illinois,"O'Dowd,Thorndike"
637,62390 Waxwing Court,33.9677,-84.2438,Georgia,"Thredder,Mannie"
638,1643 Grasskamp Street,38.2968,-81.5547,West Virginia,"Fogg,Al"
639,5 Maryland Alley,34.01,-118.4717,California,"Jeggo,Ronna"
640,9893 Kings Hill,40.8956,-81.433,Ohio,"Tomsa,Georgiana"
641,3263 Coolidge Center,32.4589,-93.7143,Louisiana,"Coch,Tan"
642,4 Del Mar Center,40.4598,-79.8224,Pennsylvania,"Maude,Emanuele"
643,261 High Crossing Crossing,30.4455,-97.6595,Texas,"Gahan,Jacklin"
644,90 Florence Parkway,33.9228,-117.4867,California,"Grey,Shannan"
645,59 Maple Wood Alley,40.3522,-78.9383,Pennsylvania,"Twitchings,Putnem"
646,253 Macpherson Way,43.0528,-87.9353,Wisconsin,"Bercevelo,Karyl"
647,6 Walton Parkway,40.2023,-85.4082,Indiana,"Rutt,Riane"
648,3902 Manitowish Crossing,41.8119,-87.6873,Illinois,"Gringley,Lazarus"
649,53 Mifflin Place,33.1428,-97.0727,Texas,"Pitkeathley,Regen"
650,50814 Ilene Terrace,38.2149,-85.6245,Kentucky,"Whorf,Arleen"
651,230 Portage Circle,28.5469,-81.2571,Florida,"McAuslan,Erl"
652,05850 Surrey Point,38.5816,-121.4933,California,"Robbins,Rosalind"
653,5 Hallows Street,38.945,-77.0364,District of Columbia,"Shrubb,Noelani"
654,2580 Clove Avenue,47.9335,-97.3944,North Dakota,"Huban,Eugenia"
655,299 Mcbride Junction,44.9806,-93.1771,Minnesota,"Ruddin,Vannie"
656,5 Marcy Court,42.1087,-79.9535,Pennsylvania,"Adamthwaite,Thorpe"
657,635 Eagan Plaza,37.9577,-121.2897,California,"Sulman,Harwell"
658,32 Superior Terrace,38.2968,-81.5547,West Virginia,"Swaffer,Brooks"
659,87 Emmet Park,33.7866,-118.2987,California,"Smyth,Shem"
660,051 Hudson Point,40.8702,-73.8495,New York,"Bottom,Nathaniel"
661,00536 Leroy Junction,31.6948,-106.3,Texas,"Faragan,Sloan"
662,6794 Harper Terrace,47.6849,-122.2968,Washington,"Suller,Elsbeth"
663,797 Hudson Drive,34.8019,-92.1894,Arkansas,"Lutty,Enrique"
664,750 Tomscot Pass,33.5446,-86.9292,Alabama,"Baggalley,Rorie"
665,71 Macpherson Pass,33.0169,-116.846,California,"Drinkel,Kessiah"
666,5 Quincy Court,32.432,-99.7724,Texas,"Malinson,Blanca"
667,4 Main Hill,40.8111,-73.9642,New York,"Lemmers,Bruno"
668,07 Superior Center,33.9937,-81.0199,South Carolina,"Jeromson,Lyman"
669,93 Oakridge Street,30.6589,-88.178,Alabama,"Arnefield,Brandi"
670,6 Fallview Place,42.7684,-78.8871,New York,"Lymbourne,Kailey"
671,4713 Heath Trail,33.8444,-84.474,Georgia,"Gaskill,Marlowe"
672,0 Anderson Center,41.3914,-75.6657,Pennsylvania,"Jovicevic,Adelheid"
673,574 Fremont Road,33.9321,-83.3525,Georgia,"Prazer,Martelle"
674,58 Oneill Lane,38.3774,-121.4444,California,"Schutter,Trix"
675,11 Shelley Crossing,42.7325,-84.5587,Michigan,"O'Flaverty,Ahmad"
676,80493 Burrows Center,41.6913,-70.9355,Massachusetts,"Melanaphy,Duky"
677,01 Vidon Drive,41.0938,-85.0707,Indiana,"Skitt,Lawry"
678,18 Killdeer Trail,38.4826,-121.4006,California,"Buckbee,Kailey"
679,3491 Montana Drive,42.7684,-78.8871,New York,"Ivan,Aidan"
680,32 4th Lane,35.4369,-119.0679,California,"Comber,Sampson"
681,43 La Follette Place,43.4599,-116.244,Idaho,"MacCumeskey,Harriette"
682,887 Atwood Parkway,34.7269,-92.344,Arkansas,"Dillway,Denny"
683,0824 Larry Crossing,38.8933,-77.0146,District of Columbia,"Tolcher,Daveta"
684,4799 Manufacturers Terrace,36.1114,-86.869,Tennessee,"Kohtler,Sheba"
685,4606 Miller Court,29.6813,-82.3539,Florida,"Bullier,Rockey"
686,30 Commercial Park,36.7957,-76.0126,Virginia,"Hendrichs,Lorrin"
687,4264 Northport Plaza,35.26,-80.8042,North Carolina,"Giovanizio,Saul"
688,841 Scoville Junction,35.8596,-86.421,Tennessee,"Battleson,Lyn"
689,7162 High Crossing Place,41.5968,-86.293,Indiana,"Melson,Atlante"
690,36974 Pankratz Trail,47.2325,-122.3594,Washington,"Rablan,Ogdan"
691,80 Farragut Terrace,45.5806,-122.3748,Oregon,"Nesbeth,Micheline"
692,7401 Cordelia Avenue,26.1443,-80.2069,Florida,"Eles,Layne"
693,7855 Kenwood Plaza,30.352,-97.7151,Texas,"Christofor,Celesta"
694,491 Elka Junction,40.8085,-73.9198,New York,"Cripin,Flor"
695,6458 Hintze Center,33.8444,-84.474,Georgia,"Strickland,Joyous"
696,8491 Sage Road,61.1872,-149.8804,Alaska,"Jopling,Steffi"
697,6395 Sutteridge Plaza,39.969,-83.0114,Ohio,"Lomaz,Julienne"
698,3404 Forster Trail,32.9189,-96.7751,Texas,"Elby,Darn"
699,40 Moulton Park,42.1109,-80.1534,Pennsylvania,"Yukhnini,Swen"
700,09733 Pleasure Plaza,35.22,-80.7881,North Carolina,"Bravery,Brockie"
701,1 Dottie Trail,37.7194,-97.2936,Kansas,"Banbrigge,Guthry"
702,456 Arizona Court,33.9367,-83.9573,Georgia,"Davisson,Theodore"
703,883 Atwood Park,41.028,-81.4632,Ohio,"Nizet,Lorianne"
704,47265 Shoshone Street,37.9971,-87.575,Indiana,"Langstaff,Hobard"
705,02 Spaight Road,35.0981,-89.9825,Tennessee,"Klageman,Cly"
706,5 Cambridge Hill,25.7559,-80.2013,Florida,"Belverstone,Sonnnie"
707,85 Drewry Hill,28.072,-81.9609,Florida,"Challiss,Zachary"
708,2064 Bonner Circle,39.5645,-75.597,Delaware,"Norris,Nicolis"
709,61 Golf Course Crossing,38.0702,-84.591,Kentucky,"Domerc,Imojean"
710,129 Dorton Crossing,32.2138,-110.824,Arizona,"O'Hartnedy,Cesya"
711,0520 Waywood Avenue,41.1287,-81.54,Ohio,"Boss,Benton"
712,753 Schiller Circle,25.5584,-80.4582,Florida,"Gribbins,Lothario"
713,06332 Stang Drive,45.6231,-122.5767,Washington,"Drable,Koral"
714,58 Sherman Hill,30.0956,-81.6217,Florida,"Spatari,Flor"
715,19499 Saint Paul Point,61.1089,-149.4403,Alaska,"Skoof,Gerard"
716,95449 Southridge Way,31.6948,-106.3,Texas,"Crosby,Emelda"
717,77966 Del Sol Avenue,38.9621,-94.5959,Missouri,"Sloam,Terrill"
718,581 Dovetail Crossing,35.599,-97.6251,Oklahoma,"Mynett,Archibald"
719,96467 Nancy Circle,30.2023,-92.0188,Louisiana,"Nudd,Adi"
720,0670 Tennyson Trail,40.6324,-74.1172,New York,"Revan,Guglielma"
721,28597 Carey Point,27.9843,-82.7813,Florida,"Finnis,Stefa"
722,52 Schlimgen Avenue,33.0169,-116.846,California,"Threlkeld,Flora"
723,42141 Bartillon Drive,38.354,-81.6394,West Virginia,"McNeachtain,Jeffry"
724,796 Hoffman Lane,36.0807,-80.0244,North Carolina,"Clutton,Ellwood"
725,377 Old Gate Way,31.6948,-106.3,Texas,"Wasielewicz,Amalia"
726,1153 1st Crossing,42.3319,-71.254,Massachusetts,"Lorincz,Olivie"
727,565 Raven Park,40.7548,-73.6018,New York,"Caro,Jami"
728,56983 Oxford Parkway,34.1872,-118.3865,California,"Mattioni,Lammond"
729,066 Doe Crossing Place,33.8444,-84.474,Georgia,"Snelgar,Yance"
730,426 Maywood Point,39.2829,-94.409,Missouri,"Stennings,Jaquith"
731,6131 Washington Street,27.9654,-82.8001,Florida,"Nisen,Lewie"
732,93020 Scofield Pass,41.6538,-83.6589,Ohio,"Tidmarsh,Sidoney"
733,8729 Pankratz Way,43.0696,-89.4239,Wisconsin,"Have,Lezley"
734,8731 Service Center,29.9781,-95.5803,Texas,"Adamiak,Sharleen"
735,7272 Nobel Pass,39.778,-89.6466,Illinois,"McCurtin,Hilary"
736,3 Armistice Lane,32.7673,-96.7776,Texas,"Simonitto,Keven"
737,3 Spaight Road,37.6374,-122.067,California,"Tulk,Basile"
738,7887 Dexter Pass,27.0459,-82.2491,Florida,"Caren,Blondy"
739,77025 Clarendon Crossing,34.8337,-92.3289,Arkansas,"Nolleth,Sydelle"
740,76726 Homewood Trail,38.8933,-77.0146,District of Columbia,"Muggach,Jody"
741,0525 Trailsway Way,25.5593,-80.3483,Florida,"Borrie,Arlene"
742,167 Claremont Point,41.6868,-83.4394,Ohio,"Heathwood,Sheela"
743,4 Prentice Plaza,42.37,-71.1773,Massachusetts,"Richings,Davy"
744,6 Gulseth Road,30.3264,-97.7713,Texas,"Renison,Loree"
745,482 Old Gate Parkway,33.8932,-84.2539,Georgia,"Thring,Glory"
746,0 Waywood Avenue,41.8119,-87.6873,Illinois,"Truter,Lacy"
747,143 Canary Terrace,35.26,-80.8042,North Carolina,"Lorden,Kinny"
748,10 Milwaukee Place,38.0283,-84.4715,Kentucky,"Winterscale,Stanwood"
749,0111 Forster Point,34.169,-118.3442,California,"Dyet,Bettye"
750,9706 Little Fleur Junction,38.8247,-104.562,Colorado,"Shyre,Kin"
751,2975 Crowley Trail,38.2149,-85.6245,Kentucky,"Mattioli,Charlot"
752,6322 Michigan Crossing,45.0632,-93.3811,Minnesota,"Cartmell,Nicolette"
753,055 Ludington Drive,43.0696,-89.4239,Wisconsin,"Yokelman,Clarine"
754,44489 Harbort Place,38.8933,-77.0146,District of Columbia,"Valentetti,Mano"
755,968 Emmet Center,30.3264,-97.7713,Texas,"Tappington,Hatti"
756,90492 Gerald Street,33.0169,-116.846,California,"Dudin,Mitchael"
757,4096 Hazelcrest Parkway,38.8874,-77.0047,District of Columbia,"Greggs,Leland"
758,187 Kingsford Pass,38.4134,-82.2774,West Virginia,"Rasmus,Robb"
759,403 Derek Place,35.3471,-120.4553,California,"Middlemass,Belva"
760,896 Londonderry Crossing,26.5228,-81.7065,Florida,"Stennings,Northrup"
761,671 Bellgrove Way,38.7202,-77.4391,Virginia,"Roggieri,Creigh"
762,2 Dovetail Place,25.5584,-80.4582,Florida,"Greenstock,Revkah"
763,912 Bonner Plaza,31.6948,-106.3,Texas,"Amberson,Lenard"
764,56 Dayton Trail,39.0883,-77.1568,Maryland,"Butterly,Ulrika"
765,928 Carpenter Circle,33.7866,-118.2987,California,"Colwill,Krystle"
766,17412 Golden Leaf Center,33.8193,-118.2325,California,"Quiddington,Cazzie"
767,120 Kennedy Crossing,40.6747,-74.2239,New Jersey,"Laurent,Freddy"
768,647 Lyons Street,39.5645,-75.597,Delaware,"Kinavan,Maurizio"
769,41 Tennyson Place,39.7509,-86.1924,Indiana,"Crockatt,Georgine"
770,0078 Artisan Crossing,26.1497,-80.1229,Florida,"MacKellar,Lorinda"
771,19397 Clemons Terrace,33.3887,-111.8428,Arizona,"Benedito,Miller"
772,3353 Nevada Road,33.8444,-84.474,Georgia,"Corbould,Holli"
773,422 Anderson Place,43.174,-77.5637,New York,"Kennea,Corny"
774,8 Heath Park,29.9781,-95.5803,Texas,"Brownjohn,Georgina"
775,8197 Hoepker Place,33.9631,-118.3941,California,"Saill,Tova"
776,7 Ryan Center,31.6948,-106.3,Texas,"McDugal,Valina"
777,3 Atwood Drive,39.1678,-119.7764,Nevada,"Burner,Leonard"
778,81 Loeprich Center,32.4908,-92.1594,Louisiana,"Durdle,Kile"
779,2 Steensland Lane,31.7705,-106.5048,Texas,"Airy,Orrin"
780,7 Rutledge Terrace,25.8507,-80.2366,Florida,"Jaukovic,Caro"
781,947 Surrey Parkway,25.7341,-80.4068,Florida,"Gymlett,Hastings"
782,562 Hudson Circle,45.5806,-122.3748,Oregon,"Wernher,Audrey"
783,58839 Lerdahl Center,36.1866,-86.7852,Tennessee,"Trinder,Elwyn"
784,37 5th Drive,34.2628,-119.8486,California,"Tomkin,Benetta"
785,53 Hudson Terrace,30.033,-89.8826,Louisiana,"Curd,Carmelita"
786,8020 Kennedy Avenue,38.9381,-77.086,District of Columbia,"Heavens,Angel"
787,7997 Norway Maple Plaza,26.1097,-80.3215,Florida,"Van den Bosch,Abramo"
788,31217 Fair Oaks Court,32.6076,-93.7526,Louisiana,"Arens,Alexina"
789,01 Fuller Parkway,36.0807,-80.0244,North Carolina,"Mauser,Flemming"
790,09720 Moose Road,29.8941,-95.6481,Texas,"Filipic,Shannon"
791,53433 Loftsgordon Park,39.0883,-77.1568,Maryland,"Rudloff,Crissy"
792,02963 Steensland Lane,45.0159,-93.4719,Minnesota,"Sporrij,Christy"
793,376 Basil Court,38.9776,-77.386,Virginia,"Plomer,Emlen"
794,42151 Chive Road,35.0443,-106.6729,New Mexico,"Bing,Red"
795,4432 Ryan Street,41.3087,-72.9271,Connecticut,"Mattiassi,Obie"
796,699 Springs Street,46.9346,-97.2297,North Dakota,"Sammonds,Udale"
797,1177 Warrior Parkway,47.7377,-122.3431,Washington,"Le Marchand,Billye"
798,3 Kedzie Circle,36.2204,-115.1458,Nevada,"Kreutzer,Brew"
799,613 Prairie Rose Lane,39.8422,-105.1097,Colorado,"Bartolommeo,Shel"
800,13681 Prairieview Pass,42.7684,-78.8871,New York,"Scrogges,Moria"
801,3 Old Gate Street,33.7866,-118.2987,California,"Durtnal,Elwyn"
802,2250 Hagan Hill,47.1441,-122.4434,Washington,"Gibbard,Leda"
803,9 Toban Alley,39.0429,-95.7697,Kansas,"Willshaw,Faith"
804,40753 Dunning Street,25.9441,-80.2144,Florida,"Sousa,Artemis"
805,16 Daystar Parkway,40.6924,-73.9666,New York,"Pilipyak,Ethelda"
806,5 Sycamore Alley,43.286,-77.6843,New York,"Scollick,Taber"
807,0730 Melrose Circle,33.811,-117.8493,California,"Mc Gee,Leopold"
808,0 Heffernan Point,33.5446,-86.9292,Alabama,"Wisniewski,Starr"
809,67538 Lakewood Terrace,40.4614,-88.953,Illinois,"Rummer,Rycca"
810,8778 Meadow Ridge Lane,27.2427,-82.4751,Florida,"Nund,Ripley"
811,447 Monterey Terrace,28.3067,-80.6862,Florida,"Fines,Jerry"
812,0 Kim Pass,27.0459,-82.2491,Florida,"Dillon,Angel"
813,3 Columbus Park,42.2399,-83.1508,Michigan,"Radbourn,Matty"
814,802 Sutteridge Junction,38.1286,-104.5523,Colorado,"Hick,Howard"
815,597 Swallow Plaza,36.2158,-115.0671,Nevada,"Hanrott,Edgardo"
816,215 Sachtjen Circle,39.778,-89.6466,Illinois,"Bessey,Celinda"
817,4106 5th Drive,41.0977,-85.1189,Indiana,"Flobert,Sergio"
818,28 Rigney Park,47.4497,-122.3076,Washington,"Crooke,Massimo"
819,02861 John Wall Circle,40.0028,-83.0164,Ohio,"Milbourne,Georgina"
820,5 Farmco Plaza,31.4647,-100.39,Texas,"Wyrill,Jolene"
821,6 Commercial Crossing,37.6808,-97.1558,Kansas,"Leil,Orton"
822,594 Heffernan Pass,33.2765,-112.1872,Arizona,"Blueman,Eddy"
823,578 Quincy Court,36.0914,-115.0885,Nevada,"Linck,Corrie"
824,3888 Ludington Trail,38.6383,-90.4271,Missouri,"Kraft,Cassius"
825,833 Lukken Avenue,47.7377,-122.3431,Washington,"O' Driscoll,Haley"
826,6829 American Ash Avenue,35.4794,-97.5017,Oklahoma,"Rackley,Ardra"
827,7 Lotheville Hill,39.9473,-75.15,Pennsylvania,"Shivell,Sigismundo"
828,504 Iowa Circle,41.1465,-85.1232,Indiana,"Clemens,Faustina"
829,3243 Sutherland Drive,39.7155,-84.1637,Ohio,"McCalum,Stanfield"
830,8633 Logan Point,40.7911,-81.4169,Ohio,"Savatier,Matty"
831,62771 Lerdahl Junction,38.896,-77.0177,District of Columbia,"Peat,Kamilah"
832,337 Evergreen Avenue,29.7543,-95.3609,Texas,"Cherrett,Zeb"
833,04718 Pankratz Junction,43.4732,-83.9514,Michigan,"Seabourne,Harlan"
834,73 Heath Point,38.354,-81.6394,West Virginia,"Abadam,Elli"
835,3 Redwing Junction,30.2081,-92.0951,Louisiana,"Basilone,Cam"
836,1 Summit Hill,40.7324,-74.0431,New Jersey,"McSperrin,Zerk"
837,283 Nova Circle,32.7673,-96.7776,Texas,"Dyshart,Felisha"
838,0 Grim Point,33.7866,-118.2987,California,"Sames,Nance"
839,403 Cottonwood Point,33.5446,-86.9292,Alabama,"Beagles,Raymund"
840,005 Farragut Circle,32.9522,-96.6654,Texas,"Welburn,Torrie"
841,4758 Ilene Circle,30.3264,-97.7713,Texas,"Lindsley,Meryl"
842,54504 Fairfield Junction,38.8318,-77.2888,Virginia,"Tarney,Virgilio"
843,4 Blaine Park,29.834,-95.4342,Texas,"Whalebelly,Annaliese"
844,27608 Helena Parkway,39.2847,-76.6205,Maryland,"Haibel,Miquela"
845,811 Upham Point,38.8247,-104.562,Colorado,"Graysmark,Kent"
846,93 Heffernan Street,35.2017,-89.9715,Tennessee,"Messam,Stanley"
847,01 Mitchell Drive,31.6948,-106.3,Texas,"McLennan,Kimberley"
848,34 Brickson Park Drive,31.6948,-106.3,Texas,"De Blasio,Serge"
849,58 Esch Terrace,38.2968,-81.5547,West Virginia,"Messer,Chip"
850,8 Manley Alley,38.897,-77.0251,District of Columbia,"Pesterfield,Nicolis"
851,7843 Coleman Junction,33.5452,-86.6655,Alabama,"Kennealy,Glen"
852,96 Lukken Way,27.4841,-82.5834,Florida,"Meharry,Mervin"
853,8 Valley Edge Hill,25.9894,-80.2153,Florida,"Dowyer,Gary"
854,2 Ilene Park,37.7848,-122.7278,California,"Lapworth,Karmen"
855,44932 Eliot Place,31.6948,-106.3,Texas,"Bevir,Kimbell"
856,987 Esch Junction,40.7808,-73.9772,New York,"Rossbrook,Dorella"
857,07 Cody Crossing,28.0081,-82.5805,Florida,"Linnitt,Eliot"
858,63 Steensland Crossing,39.0583,-95.7095,Kansas,"Giacomasso,Ferdie"
859,661 Graedel Alley,41.3914,-75.6657,Pennsylvania,"Blakeston,Eleen"
860,330 Banding Pass,36.0512,-78.8577,North Carolina,"Coils,Dalenna"
861,906 Springs Street,33.7406,-84.5545,Georgia,"O'Carney,Zondra"
862,9082 Garrison Way,39.439,-76.5921,Maryland,"Mateus,Brittani"
863,48 Acker Place,33.6062,-117.8931,California,"Stobbart,Tiphanie"
864,76 Pennsylvania Terrace,30.0505,-95.4695,Texas,"Goudman,Harriett"
865,8 Lerdahl Parkway,38.189,-85.6768,Kentucky,"Spark,Fannie"
866,89 Judy Way,37.1136,-93.2896,Missouri,"McLucky,Frederico"
867,39233 Kennedy Lane,33.571,-101.8507,Texas,"Huncoot,Benjamin"
868,6974 Marquette Crossing,36.7464,-119.6397,California,"Lown,Oswell"
869,024 Boyd Crossing,32.373,-86.3081,Alabama,"Aven,Marquita"
870,1 Heath Junction,32.6796,-97.3336,Texas,"Claige,Cristobal"
871,205 Weeping Birch Court,41.2044,-75.9113,Pennsylvania,"Boteman,Jerry"
872,2 Novick Junction,32.7635,-117.2028,California,"Hawick,Tonia"
873,704 Delladonna Trail,39.7505,-84.2686,Ohio,"Dykes,Ruddie"
874,879 Oxford Avenue,32.4968,-92.0756,Louisiana,"Lougheid,Aarika"
875,3 Prentice Point,35.0443,-106.6729,New Mexico,"Rutherford,Lauretta"
876,9306 Independence Way,37.7641,-122.1633,California,"Baillie,Suzi"
877,5 Northport Road,27.8402,-82.7125,Florida,"Gerrens,Diarmid"
878,9 Declaration Trail,39.969,-83.0114,Ohio,"Stubbeley,Delano"
879,13101 Brown Alley,33.7074,-117.8403,California,"Hulke,Perry"
880,3 Norway Maple Drive,29.7629,-95.3629,Texas,"Fabri,Jewel"
881,69 Dunning Plaza,38.3774,-121.4444,California,"Eskrigge,Jeth"
882,5 Del Sol Junction,26.1654,-80.2959,Florida,"Showalter,Meg"
883,812 Fuller Road,31.6948,-106.3,Texas,"Grinikhin,Quent"
884,7 Daystar Avenue,38.6531,-90.2435,Missouri,"Berk,Avie"
885,2779 Carioca Park,34.0378,-84.5038,Georgia,"Knudsen,Saree"
886,01191 Southridge Drive,31.6948,-106.3,Texas,"Laurentin,Bamby"
887,269 Buhler Crossing,43.0696,-89.4239,Wisconsin,"McVitie,Katusha"
888,8 Luster Trail,38.068,-122.741,California,"Spurr,Charity"
889,54688 Artisan Trail,34.1446,-117.3013,California,"Castiglio,Arlette"
890,263 Waxwing Lane,45.5806,-122.3748,Oregon,"Sandbatch,Heda"
891,95636 School Parkway,39.2933,-76.6238,Maryland,"Diggar,Jenna"
892,438 Pierstorff Road,30.4756,-87.3179,Florida,"Cockson,Skell"
893,087 Dexter Pass,33.4707,-111.7188,Arizona,"Stamp,Bridget"
894,37 Morning Avenue,39.6472,-105.0795,Colorado,"Mease,Packston"
895,239 Rowland Terrace,38.9273,-94.7143,Kansas,"Winspire,Frederik"
896,5 Village Street,35.9901,-83.9622,Tennessee,"Cousin,Duane"
897,78885 Huxley Way,25.8507,-80.2366,Florida,"Schaumaker,Jeffy"
898,1 Meadow Ridge Parkway,43.0389,-87.9024,Wisconsin,"Dunstall,Marylee"
899,61497 Butternut Place,47.2325,-122.3594,Washington,"Cammoile,Thorpe"
900,56770 Pearson Drive,38.8933,-77.0146,District of Columbia,"Pacher,Preston"
901,353 Acker Circle,25.5584,-80.4582,Florida,"Ferrick,Hurleigh"
902,5277 Harper Street,33.8913,-84.0746,Georgia,"Bardwall,Rora"
903,873 Marquette Hill,41.249,-96.0274,Nebraska,"Albinson,Berget"
904,5 Anthes Road,39.7388,-104.4083,Colorado,"Napleton,Jeremiah"
905,804 Memorial Plaza,41.2722,-75.8801,Pennsylvania,"Gerardi,Candy"
906,576 Sachtjen Place,40.4344,-80.0248,Pennsylvania,"Notton,Cher"
907,84194 Rieder Crossing,43.0631,-89.3133,Wisconsin,"Skeldinge,Reynard"
908,3405 Crowley Lane,38.0283,-84.4715,Kentucky,"Isard,Dylan"
909,8 Killdeer Parkway,38.8808,-77.113,Virginia,"Geroldi,Joete"
910,65 Duke Avenue,39.5207,-77.9162,Maryland,"Rosin,Orbadiah"
911,7 Cambridge Avenue,41.0977,-85.1189,Indiana,"Fossey,Madel"
912,66 Kipling Terrace,21.351,-157.8795,Hawaii,"Hyne,Mic"
913,83 Manley Pass,42.362,-71.083,Massachusetts,"Rucklesse,Florina"
914,56 Homewood Hill,42.7684,-78.8871,New York,"Rickarsey,Bengt"
915,907 Monterey Park,39.7388,-104.4083,Colorado,"Ackermann,Maren"
916,9 Gerald Road,30.033,-89.8826,Louisiana,"Holhouse,Randi"
917,2 Michigan Point,61.1535,-149.8289,Alaska,"Kave,Karia"
918,6458 Luster Hill,30.3264,-97.7713,Texas,"Ridding,Niels"
919,547 Killdeer Crossing,33.6706,-117.7645,California,"Planque,Shurlock"
920,043 Spohn Center,39.0429,-95.7697,Kansas,"Trowbridge,Erinn"
921,7 Bonner Trail,37.6802,-121.9215,California,"Bosse,Charlean"
922,9 Forest Run Plaza,30.3704,-81.5864,Florida,"Hext,Gage"
923,76 Bobwhite Way,31.6948,-106.3,Texas,"Chetwin,Brett"
924,9 Emmet Pass,30.1949,-85.6727,Florida,"Bromet,Lari"
925,6 Atwood Trail,38.7351,-77.0796,Virginia,"Shortcliffe,Batsheva"
926,85273 Randy Circle,35.3471,-120.4553,California,"Swadden,Gerhardine"
927,4 Portage Avenue,33.7866,-118.2987,California,"Janovsky,Cindelyn"
928,33 Sherman Center,38.8933,-77.0146,District of Columbia,"Jeannenet,Carolina"
929,4 Sutteridge Trail,42.1827,-80.0649,Pennsylvania,"Kelsall,Joey"
930,7190 Talmadge Junction,38.8158,-77.09,Virginia,"Pedrielli,Ervin"
931,7276 Kropf Trail,33.7866,-118.2987,California,"Fley,Violet"
932,70186 Havey Way,32.0295,-102.0915,Texas,"Millott,Roderick"
933,06529 Cody Parkway,45.2009,-93.8881,Minnesota,"Petett,Prescott"
934,5449 Fairfield Alley,40.6681,-111.9083,Utah,"Pretious,Christy"
935,99 Comanche Crossing,40.754,-73.9808,New York,"Darrach,Sybil"
936,3754 Lukken Plaza,40.43,-74.4173,New Jersey,"Gresty,Robin"
937,2745 Pepper Wood Street,29.8941,-95.6481,Texas,"Yardley,Aime"
938,14610 Larry Trail,42.4464,-71.4594,Massachusetts,"MacNeilage,Blair"
939,8 Green Ridge Circle,40.4344,-80.0248,Pennsylvania,"Pearse,Hieronymus"
940,6 Village Trail,35.4242,-97.6547,Oklahoma,"Ronaghan,Dino"
941,46940 Sutherland Junction,43.0746,-88.0604,Wisconsin,"Labro,Claiborne"
942,1 Grasskamp Alley,41.5386,-90.6115,Iowa,"Beceril,Aigneis"
943,431 Eastwood Point,35.7977,-78.6253,North Carolina,"Jorn,Olivia"
944,7 Alpine Plaza,39.7434,-75.5827,Delaware,"Fursse,Jeremy"
945,999 Welch Street,31.7705,-106.5048,Texas,"Tickel,Jan"
946,833 Moose Trail,31.2034,-92.5269,Louisiana,"Spillard,Goraud"
947,98977 Magdeline Street,45.2009,-93.8881,Minnesota,"Gabites,Romola"
948,283 Continental Alley,33.811,-117.8493,California,"McIlwraith,Bondy"
949,81931 Division Lane,33.3813,-86.7046,Alabama,"Dufour,Guillermo"
950,9 Park Meadow Alley,39.439,-76.5921,Maryland,"Foresight,Arlee"
951,8 Cody Plaza,27.777,-97.4632,Texas,"Monni,Christian"
952,65957 Nevada Terrace,30.2231,-81.7556,Florida,"Werny,Harrison"
953,398 Mcbride Drive,34.2006,-118.4868,California,"Abrahart,Dari"
954,2372 Vidon Circle,33.8359,-117.9086,California,"Kellard,Benjie"
955,1631 Brentwood Avenue,38.8318,-77.2888,Virginia,"Roskell,Borden"
956,57737 Sunnyside Place,39.1092,-84.6108,Ohio,"Lyptrade,Orella"
957,0 Lindbergh Park,38.8933,-77.0146,District of Columbia,"O'Bradden,Willyt"
958,458 Farragut Point,35.9279,-114.9721,Nevada,"Fannin,Morgun"
959,6 Westend Court,38.9,-77.0369,District of Columbia,"Tures,Aurelia"
960,89 Hoepker Point,38.896,-77.0177,District of Columbia,"Ayrs,Albie"
961,50917 Truax Terrace,34.7519,-92.3925,Arkansas,"Dullingham,Vidovik"
962,5760 Esker Drive,47.1042,-122.87,Washington,"Viles,Beatrice"
963,1518 Nevada Point,42.7286,-84.5517,Michigan,"Soro,Cad"
964,017 Northland Lane,39.6269,-119.7081,Nevada,"Tomasi,Finn"
965,02 Saint Paul Circle,42.3654,-71.2316,Massachusetts,"Gilchrist,Erminia"
966,736 Thackeray Place,42.1087,-79.9535,Pennsylvania,"Dochon,Chery"
967,48 Gerald Circle,34.1231,-79.6893,South Carolina,"Penddreth,Murial"
968,35 Lerdahl Court,41.8784,-87.633,Illinois,"Donaldson,Halimeda"
969,86240 Barby Crossing,40.5051,-80.1155,Pennsylvania,"Goldring,Odille"
970,5 Helena Drive,37.6379,-97.2613,Kansas,"Fothergill,Adolph"
971,13 Green Ridge Street,43.286,-77.6843,New York,"Dungey,Britteny"
972,6 Roxbury Parkway,32.9189,-96.7751,Texas,"Upstone,Helenka"
973,21242 Pond Parkway,39.361,-76.5891,Maryland,"De Winton,Eliza"
974,431 Westridge Road,36.9312,-76.2397,Virginia,"Reyner,Joanne"
975,508 Holmberg Terrace,37.9971,-87.575,Indiana,"Slate,Dari"
976,48 Prentice Alley,38.4797,-121.4438,California,"Whistlecraft,Bond"
977,8715 Basil Alley,40.3286,-75.1028,Pennsylvania,"Corking,Donalt"
978,0 Union Hill,41.119,-73.733,New York,"Goodley,Sebastiano"
979,565 Armistice Pass,35.7977,-78.6253,North Carolina,"Brislawn,Robinet"
980,1 Autumn Leaf Way,37.5242,-77.4932,Virginia,"Heustice,Gaven"
981,3945 Calypso Street,42.3823,-71.0323,Massachusetts,"Roser,Langston"
982,2 Declaration Street,32.6076,-93.7526,Louisiana,"Babbe,Gerry"
983,722 Atwood Plaza,35.7977,-78.6253,North Carolina,"Massot,Richardo"
984,909 Village Green Street,42.5125,-83.0643,Michigan,"Verrier,Cathy"
985,872 Sundown Avenue,35.7977,-78.6253,North Carolina,"Carlo,Rossy"
986,26 Oak Valley Drive,36.7563,-121.6703,California,"Jovis,Felice"
987,7 La Follette Circle,39.7388,-104.4083,Colorado,"Vodden,Marillin"
988,48756 Jenifer Way,32.7673,-96.7776,Texas,"Bishell,Dexter"
989,329 Cambridge Junction,27.8444,-82.7963,Florida,"Rapper,Godfrey"
990,6326 Erie Court,30.033,-89.8826,Louisiana,"Torricina,Cass"
991,62 Lawn Park,44.9427,-93.0828,Minnesota,"Picknett,Starlene"
992,39 Laurel Drive,37.8044,-122.2698,California,"Pohl,Martyn"
993,1 Maple Wood Center,38.8518,-94.3944,Missouri,"Norcutt,Clarita"
994,44968 Schiller Junction,27.872,-82.4388,Florida,"Kenaway,Lauree"
995,6546 Waxwing Circle,33.5446,-86.9292,Alabama,"Freshwater,Clare"
996,604 Parkside Street,40.7286,-111.6627,Utah,"Letrange,Viole"
997,44 Northwestern Court,40.7918,-74.2452,New Jersey,"Colvill,Tim"
998,33 Bunting Point,39.5387,-119.8225,Nevada,"Wafer,Benny"
999,8389 Sommers Street,45.5806,-122.3748,Oregon,"Sedgebeer,Addia"
